{
  "type": "FeatureCollection",
  "features": [
    {
      "type": "Feature",
      "properties": {
        "norad_id": 31424,
        "name": "FENGYUN 1C DEB",
        "group": "fengyun-1c-debris",
        "lat": 0.0924692576680143,
        "lon": 24.67731851344335,
        "alt_km": 904.767494415777,
        "timestamp": "2025-12-06T07:31:40.519169+00:00",
        "meta_object_name": "FENGYUN 1C DEB",
        "meta_object_id": "1999-025BTL",
        "meta_epoch": "2025-11-30T08:17:58.541280",
        "meta_mean_motion": 14.08343651,
        "meta_eccentricity": 0.00943116,
        "meta_inclination": 98.4831,
        "meta_ra_of_asc_node": 19.0781,
        "meta_arg_of_pericenter": 140.2741,
        "meta_mean_anomaly": 220.5387,
        "meta_ephemeris_type": 0,
        "meta_classification_type": "U",
        "meta_norad_cat_id": 31424,
        "meta_element_set_no": 999,
        "meta_rev_at_epoch": 62996,
        "meta_bstar": 0.00033750257,
        "meta_mean_motion_dot": 5.62e-06,
        "meta_mean_motion_ddot": 0,
        "tle_line1": "1 31424U 99025BTL 25334.34581645  .00000562  00000+0  33750-3 0  9995",
        "tle_line2": "2 31424  98.4831  19.0781 0094311 140.2741 220.5387 14.08343651629966"
      },
      "geometry": {
        "type": "Point",
        "coordinates": [
          24.67731851344335,
          0.0924692576680143
        ]
      }
    },
    {
      "type": "Feature",
      "properties": {
        "norad_id": 31426,
        "name": "FENGYUN 1C DEB",
        "group": "fengyun-1c-debris",
        "lat": -71.19547463747564,
        "lon": -67.90471387269562,
        "alt_km": 777.338398937718,
        "timestamp": "2025-12-06T07:31:40.519180+00:00",
        "meta_object_name": "FENGYUN 1C DEB",
        "meta_object_id": "1999-025BTN",
        "meta_epoch": "2025-12-04T05:04:00.811200",
        "meta_mean_motion": 13.89920853,
        "meta_eccentricity": 0.032517,
        "meta_inclination": 98.5788,
        "meta_ra_of_asc_node": 136.4669,
        "meta_arg_of_pericenter": 209.4643,
        "meta_mean_anomaly": 325.996,
        "meta_ephemeris_type": 0,
        "meta_classification_type": "U",
        "meta_norad_cat_id": 31426,
        "meta_element_set_no": 999,
        "meta_rev_at_epoch": 93454,
        "meta_bstar": 0.0063326,
        "meta_mean_motion_dot": 0.00011919,
        "meta_mean_motion_ddot": 0,
        "tle_line1": "1 31426U 99025BTN 25338.21112050  .00011919  00000+0  63326-2 0  9996",
        "tle_line2": "2 31426  98.5788 136.4669 0325170 209.4643 325.9960 13.89920853934541"
      },
      "geometry": {
        "type": "Point",
        "coordinates": [
          -67.90471387269562,
          -71.19547463747564
        ]
      }
    },
    {
      "type": "Feature",
      "properties": {
        "norad_id": 31427,
        "name": "FENGYUN 1C DEB",
        "group": "fengyun-1c-debris",
        "lat": 41.1294646478564,
        "lon": 81.43641373120896,
        "alt_km": 672.3511877019891,
        "timestamp": "2025-12-06T07:31:40.519190+00:00",
        "meta_object_name": "FENGYUN 1C DEB",
        "meta_object_id": "1999-025BTP",
        "meta_epoch": "2025-12-05T06:38:24.478944",
        "meta_mean_motion": 14.58416313,
        "meta_eccentricity": 0.00318184,
        "meta_inclination": 98.6701,
        "meta_ra_of_asc_node": 88.0127,
        "meta_arg_of_pericenter": 43.0691,
        "meta_mean_anomaly": 317.2988,
        "meta_ephemeris_type": 0,
        "meta_classification_type": "U",
        "meta_norad_cat_id": 31427,
        "meta_element_set_no": 999,
        "meta_rev_at_epoch": 96772,
        "meta_bstar": 0.0046305931,
        "meta_mean_motion_dot": 0.00021631,
        "meta_mean_motion_ddot": 0,
        "tle_line1": "1 31427U 99025BTP 25339.27667221  .00021631  00000+0  46306-2 0  9990",
        "tle_line2": "2 31427  98.6701  88.0127 0031818  43.0691 317.2988 14.58416313967725"
      },
      "geometry": {
        "type": "Point",
        "coordinates": [
          81.43641373120896,
          41.1294646478564
        ]
      }
    },
    {
      "type": "Feature",
      "properties": {
        "norad_id": 31428,
        "name": "FENGYUN 1C DEB",
        "group": "fengyun-1c-debris",
        "lat": 18.166840642134904,
        "lon": 134.3821577129051,
        "alt_km": 708.2040161857922,
        "timestamp": "2025-12-06T07:31:40.519201+00:00",
        "meta_object_name": "FENGYUN 1C DEB",
        "meta_object_id": "1999-025BTQ",
        "meta_epoch": "2025-11-30T16:42:56.245248",
        "meta_mean_motion": 14.41916615,
        "meta_eccentricity": 0.00631881,
        "meta_inclination": 99.0374,
        "meta_ra_of_asc_node": 305.4456,
        "meta_arg_of_pericenter": 189.4697,
        "meta_mean_anomaly": 350.2628,
        "meta_ephemeris_type": 0,
        "meta_classification_type": "U",
        "meta_norad_cat_id": 31428,
        "meta_element_set_no": 999,
        "meta_rev_at_epoch": 97336,
        "meta_bstar": 0.00075650777,
        "meta_mean_motion_dot": 2.488e-05,
        "meta_mean_motion_ddot": 0,
        "tle_line1": "1 31428U 99025BTQ 25334.69648432  .00002488  00000+0  75651-3 0  9990",
        "tle_line2": "2 31428  99.0374 305.4456 0063188 189.4697 350.2628 14.41916615973361"
      },
      "geometry": {
        "type": "Point",
        "coordinates": [
          134.3821577129051,
          18.166840642134904
        ]
      }
    },
    {
      "type": "Feature",
      "properties": {
        "norad_id": 31429,
        "name": "FENGYUN 1C DEB",
        "group": "fengyun-1c-debris",
        "lat": -58.093427413267584,
        "lon": 43.56241939390759,
        "alt_km": 832.2485983635133,
        "timestamp": "2025-12-06T07:31:40.519211+00:00",
        "meta_object_name": "FENGYUN 1C DEB",
        "meta_object_id": "1999-025BTR",
        "meta_epoch": "2025-12-03T02:17:33.244224",
        "meta_mean_motion": 14.22501224,
        "meta_eccentricity": 0.0015036,
        "meta_inclination": 98.6915,
        "meta_ra_of_asc_node": 26.1666,
        "meta_arg_of_pericenter": 90.6109,
        "meta_mean_anomaly": 299.4857,
        "meta_ephemeris_type": 0,
        "meta_classification_type": "U",
        "meta_norad_cat_id": 31429,
        "meta_element_set_no": 999,
        "meta_rev_at_epoch": 95816,
        "meta_bstar": 0.0012419305,
        "meta_mean_motion_dot": 2.731e-05,
        "meta_mean_motion_ddot": 0,
        "tle_line1": "1 31429U 99025BTR 25337.09552366  .00002731  00000+0  12419-2 0  9991",
        "tle_line2": "2 31429  98.6915  26.1666 0015036  90.6109 299.4857 14.22501224958162"
      },
      "geometry": {
        "type": "Point",
        "coordinates": [
          43.56241939390759,
          -58.093427413267584
        ]
      }
    },
    {
      "type": "Feature",
      "properties": {
        "norad_id": 31430,
        "name": "FENGYUN 1C DEB",
        "group": "fengyun-1c-debris",
        "lat": 45.62730817283087,
        "lon": -127.58973847221432,
        "alt_km": 796.5802668724609,
        "timestamp": "2025-12-06T07:31:40.519221+00:00",
        "meta_object_name": "FENGYUN 1C DEB",
        "meta_object_id": "1999-025BTS",
        "meta_epoch": "2025-12-04T11:10:10.439040",
        "meta_mean_motion": 14.2554831,
        "meta_eccentricity": 0.002734,
        "meta_inclination": 98.745,
        "meta_ra_of_asc_node": 41.5154,
        "meta_arg_of_pericenter": 66.6569,
        "meta_mean_anomaly": 306.7065,
        "meta_ephemeris_type": 0,
        "meta_classification_type": "U",
        "meta_norad_cat_id": 31430,
        "meta_element_set_no": 999,
        "meta_rev_at_epoch": 96000,
        "meta_bstar": 0.0021134,
        "meta_mean_motion_dot": 4.977e-05,
        "meta_mean_motion_ddot": 0,
        "tle_line1": "1 31430U 99025BTS 25338.46539860  .00004977  00000+0  21134-2 0  9997",
        "tle_line2": "2 31430  98.7450  41.5154 0027340  66.6569 306.7065 14.25548310960005"
      },
      "geometry": {
        "type": "Point",
        "coordinates": [
          -127.58973847221432,
          45.62730817283087
        ]
      }
    },
    {
      "type": "Feature",
      "properties": {
        "norad_id": 31431,
        "name": "FENGYUN 1C DEB",
        "group": "fengyun-1c-debris",
        "lat": -6.786393944308009,
        "lon": 47.857645438362475,
        "alt_km": 858.2893810846172,
        "timestamp": "2025-12-06T07:31:40.519231+00:00",
        "meta_object_name": "FENGYUN 1C DEB",
        "meta_object_id": "1999-025BTT",
        "meta_epoch": "2025-12-05T03:16:10.257312",
        "meta_mean_motion": 14.03026719,
        "meta_eccentricity": 0.01330779,
        "meta_inclination": 98.54,
        "meta_ra_of_asc_node": 227.777,
        "meta_arg_of_pericenter": 116.6342,
        "meta_mean_anomaly": 244.8528,
        "meta_ephemeris_type": 0,
        "meta_classification_type": "U",
        "meta_norad_cat_id": 31431,
        "meta_element_set_no": 999,
        "meta_rev_at_epoch": 94425,
        "meta_bstar": 0.0025562851,
        "meta_mean_motion_dot": 4.256e-05,
        "meta_mean_motion_ddot": 0,
        "tle_line1": "1 31431U 99025BTT 25339.13622983  .00004256  00000+0  25563-2 0  9992",
        "tle_line2": "2 31431  98.5400 227.7770 0133077 116.6342 244.8528 14.03026719944256"
      },
      "geometry": {
        "type": "Point",
        "coordinates": [
          47.857645438362475,
          -6.786393944308009
        ]
      }
    }
  ]
}